[{"OBJECT_NAME":"VNREDSAT 1","OBJECT_ID":"2013-021B","EPOCH":"2026-03-09T23:27:54.067104","MEAN_MOTION":14.6507341,"ECCENTRICITY":0.00016268,"INCLINATION":97.921,"RA_OF_ASC_NODE":126.138,"ARG_OF_PERICENTER":85.4971,"MEAN_ANOMALY":274.6418,"EPHEMERIS_TYPE":0,"CLASSIFICATION_TYPE":"U","NORAD_CAT_ID":39160,"ELEMENT_SET_NO":999,"REV_AT_EPOCH":68576,"BSTAR":0.00011871025,"MEAN_MOTION_DOT":5.92e-6,"MEAN_MOTION_DDOT":0},{"OBJECT_NAME":"SL-16 DEB","OBJECT_ID":"1992-093W","EPOCH":"2026-03-09T23:20:44.445696","MEAN_MOTION":14.46046793,"ECCENTRICITY":0.01226946,"INCLINATION":71.0028,"RA_OF_ASC_NODE":296.3162,"ARG_OF_PERICENTER":9.5755,"MEAN_ANOMALY":350.768,"EPHEMERIS_TYPE":0,"CLASSIFICATION_TYPE":"U","NORAD_CAT_ID":22333,"ELEMENT_SET_NO":999,"REV_AT_EPOCH":72572,"BSTAR":0.00014091673,"MEAN_MOTION_DOT":4.94e-6,"MEAN_MOTION_DDOT":0}]
